NORAD_CAT_ID,OBJECT_NAME,OBJECT_TYPE,EPOCH,MEAN_MOTION,ECCENTRICITY,INCLINATION,RA_OF_ASC_NODE,ARG_OF_PERICENTER,MEAN_ANOMALY,BSTAR,MEAN_MOTION_DOT,MEAN_MOTION_DDOT,TLE_LINE0,TLE_LINE1,TLE_LINE2,SEMIMAJOR_AXIS,PERIOD,APOGEE,PERIGEE,DECAYED
53405.0,STARLINK-4510,PAYLOAD,2023-10-11 12:41:49,15.08835063,0.0001058,53.2165,115.3158,80.7912,279.32,4.3776e-05,4.09e-06,0.0,0 STARLINK-4510,1 53405U 22097T   23284.52904279  .00000409  00000-0  43776-4 0  9998,2 53405  53.2165 115.3158 0001058  80.7912 279.3200 15.08835063 65649,6917.895,95.438,540.492,539.029,0.0
53405.0,STARLINK-4510,PAYLOAD,2023-10-11 19:03:21,15.08845548,9.53e-05,53.2155,114.1264,82.949,277.1611,0.00011806,1.592e-05,0.0,0 STARLINK-4510,1 53405U 22097T   23284.79399783  .00001592  00000-0  11806-3 0  9997,2 53405  53.2155 114.1264 0000953  82.9490 277.1611 15.08845548 65192,6917.863,95.437,540.388,539.069,0.0
53405.0,STARLINK-4510,PAYLOAD,2023-10-12 12:32:35,15.08845683,9.69e-05,53.2154,110.8555,77.4716,282.6384,0.00029503,4.411e-05,0.0,0 STARLINK-4510,1 53405U 22097T   23285.52263800  .00004411  00000-0  29503-3 0  9995,2 53405  53.2154 110.8555 0000969  77.4716 282.6384 15.08845683 65798,6917.863,95.437,540.398,539.058,0.0
53405.0,STARLINK-4510,PAYLOAD,2023-10-12 18:54:07,15.08857753,9.94e-05,53.2151,109.6656,78.6274,281.483,0.00029527,4.417e-05,0.0,0 STARLINK-4510,1 53405U 22097T   23285.78759065  .00004417  00000-0  29527-3 0  9998,2 53405  53.2151 109.6656 0000994  78.6274 281.4830 15.08857753 65832,6917.826,95.436,540.379,539.003,0.0
53405.0,STARLINK-4510,PAYLOAD,2023-10-13 18:44:54,15.08848069,9.82e-05,53.2158,105.2028,91.8455,268.265,3.3952e-05,2.53e-06,0.0,0 STARLINK-4510,1 53405U 22097T   23286.78119183  .00000253  00000-0  33952-4 0  9992,2 53405  53.2158 105.2028 0000982  91.8455 268.2650 15.08848069 65494,6917.856,95.437,540.4,539.041,0.0
53405.0,STARLINK-4510,PAYLOAD,2023-10-14 12:14:09,15.08839261,0.0001011,53.2179,101.9307,100.0231,260.0875,-8.8006e-06,-4.28e-06,0.0,0 STARLINK-4510,1 53405U 22097T   23287.50983740 -.00000428  00000-0 -88006-5 0  9998,2 53405  53.2179 101.9307 0001011 100.0231 260.0875 15.08839261 66099,6917.883,95.438,540.447,539.048,0.0
53405.0,STARLINK-4510,PAYLOAD,2023-10-14 18:35:42,15.08843117,9.32e-05,53.216,100.7444,85.1037,275.0062,-1.3964e-06,-3.1e-06,0.0,0 STARLINK-4510,1 53405U 22097T   23287.77479459 -.00000310  00000-0 -13964-5 0  9995,2 53405  53.2160 100.7444 0000932  85.1037 275.0062 15.08843117 65645,6917.871,95.437,540.381,539.091,0.0
53405.0,STARLINK-4510,PAYLOAD,2023-10-15 12:04:57,15.08833478,0.0001016,53.2176,97.4728,83.2454,276.8653,-6.0037e-07,-2.97e-06,0.0,0 STARLINK-4510,1 53405U 22097T   23288.50344154 -.00000297  00000-0 -60037-6 0  9998,2 53405  53.2176  97.4728 0001016  83.2454 276.8653 15.08833478 65751,6917.9,95.438,540.468,539.062,0.0
53405.0,STARLINK-4510,PAYLOAD,2023-10-15 18:26:29,15.08840566,0.0001036,53.2177,96.2847,84.2292,275.8818,3.9496e-05,3.41e-06,0.0,0 STARLINK-4510,1 53405U 22097T   23288.76839674  .00000341  00000-0  39496-4 0  9993,2 53405  53.2177  96.2847 0001036  84.2292 275.8818 15.08840566 65796,6917.879,95.438,540.46,539.027,0.0
53405.0,STARLINK-4510,PAYLOAD,2023-10-16 10:20:21,15.08834895,0.0001135,53.2177,93.3126,89.359,270.7532,9.9969e-05,1.303e-05,0.0,0 STARLINK-4510,1 53405U 22097T   23289.43080066  .00001303  00000-0  99969-4 0  9991,2 53405  53.2177  93.3126 0001135  89.3590 270.7532 15.08834895 66382,6917.896,95.438,540.546,538.976,0.0
53405.0,STARLINK-4510,PAYLOAD,2023-10-16 16:41:53,15.08834635,0.0001139,53.218,92.1229,87.761,272.3512,5.9965e-05,6.67e-06,0.0,0 STARLINK-4510,1 53405U 22097T   23289.69576291  .00000667  00000-0  59965-4 0  9993,2 53405  53.2180  92.1229 0001139  87.7610 272.3512 15.08834635 65934,6917.897,95.438,540.55,538.974,0.0
53405.0,STARLINK-4510,PAYLOAD,2023-10-17 19:43:27,15.08839948,0.000115,53.2182,87.0672,82.6238,277.4885,7.6063e-05,9.23e-06,0.0,0 STARLINK-4510,1 53405U 22097T   23290.82184207  .00000923  00000-0  76063-4 0  9995,2 53405  53.2182  87.0672 0001150  82.6238 277.4885 15.08839948 66598,6917.881,95.438,540.541,538.95,0.0
53405.0,STARLINK-4510,PAYLOAD,2023-10-18 10:01:55,15.08839037,0.0001144,53.2177,84.3905,84.5955,275.5168,9.1418e-05,1.167e-05,0.0,0 STARLINK-4510,1 53405U 22097T   23291.41800264  .00001167  00000-0  91418-4 0  9991,2 53405  53.2177  84.3905 0001144  84.5955 275.5168 15.08839037 66199,6917.883,95.438,540.54,538.957,0.0
53405.0,STARLINK-4510,PAYLOAD,2023-10-18 16:23:27,15.08842121,9.93e-05,53.2171,83.2013,85.0943,275.0162,0.00011859,1.6e-05,0.0,0 STARLINK-4510,1 53405U 22097T   23291.68295977  .00001600  00000-0  11859-3 0  9991,2 53405  53.2171  83.2013 0000993  85.0943 275.0162 15.08842121 66721,6917.874,95.437,540.426,539.052,0.0
53405.0,STARLINK-4510,PAYLOAD,2023-10-19 03:31:09,15.08849948,0.0001037,53.2172,81.1196,84.531,275.5801,0.00014301,1.99e-05,0.0,0 STARLINK-4510,1 53405U 22097T   23292.14663298  .00001990  00000-0  14301-3 0  9995,2 53405  53.2172  81.1196 0001037  84.5310 275.5801 15.08849948 66306,6917.85,95.437,540.432,538.998,0.0
53405.0,STARLINK-4510,PAYLOAD,2023-10-19 09:52:41,15.08846418,0.0001177,53.2168,79.9285,93.509,266.6037,0.00010743,1.423e-05,0.0,0 STARLINK-4510,1 53405U 22097T   23292.41159559  .00001423  00000-0  10743-3 0  9992,2 53405  53.2168  79.9285 0001177  93.5090 266.6037 15.08846418 66834,6917.861,95.437,540.54,538.912,0.0
53405.0,STARLINK-4510,PAYLOAD,2023-10-19 16:14:13,15.08850882,0.0001167,53.2167,78.7393,93.2444,266.8682,0.00013725,1.898e-05,0.0,0 STARLINK-4510,1 53405U 22097T   23292.67655074  .00001898  00000-0  13725-3 0  9992,2 53405  53.2167  78.7393 0001167  93.2444 266.8682 15.08850882 66871,6917.847,95.437,540.519,538.905,0.0
53405.0,STARLINK-4510,PAYLOAD,2023-10-20 03:21:56,15.08843819,0.0001079,53.2164,76.6593,86.4672,273.6444,5.6523e-05,6.12e-06,0.0,0 STARLINK-4510,1 53405U 22097T   23293.14023517  .00000612  00000-0  56523-4 0  9993,2 53405  53.2164  76.6593 0001079  86.4672 273.6444 15.08843819 66454,6917.869,95.437,540.48,538.987,0.0
53405.0,STARLINK-4510,PAYLOAD,2023-10-20 09:43:29,15.08838043,0.0001669,53.2167,75.4699,87.2188,272.8995,6.1294e-06,-1.91e-06,0.0,0 STARLINK-4510,1 53405U 22097T   23293.40520215 -.00000191  00000-0  61294-5 0  9994,2 53405  53.2167  75.4699 0001669  87.2188 272.8995 15.08838043 66496,6917.886,95.438,540.906,538.597,0.0
53405.0,STARLINK-4510,PAYLOAD,2023-10-21 12:45:02,15.08855221,0.0002483,53.2155,70.4131,90.2238,269.9039,-0.00023788,-4.074e-05,0.0,0 STARLINK-4510,1 53405U 22097T   23294.53127846 -.00004074  00000-0 -23788-3 0  9991,2 53405  53.2155  70.4131 0002483  90.2238 269.9039 15.08855221 67151,6917.834,95.437,541.417,537.981,0.0
53405.0,STARLINK-4510,PAYLOAD,2023-10-21 19:06:34,15.08853387,0.0001105,53.2171,69.2238,87.8459,272.266,0.00010384,1.366e-05,0.0,0 STARLINK-4510,1 53405U 22097T   23294.79622887  .00001366  00000-0  10384-3 0  9991,2 53405  53.2171  69.2238 0001105  87.8459 272.2660 15.08853387 66708,6917.839,95.437,540.469,538.94,0.0
53405.0,STARLINK-4510,PAYLOAD,2023-10-22 12:35:50,15.08826664,0.0002149,53.2167,65.9499,114.0578,246.0639,1.0653e-05,-1.19e-06,0.0,0 STARLINK-4510,1 53405U 22097T   23295.52489163 -.00000119  00000-0  10653-4 0  9997,2 53405  53.2167  65.9499 0002149 114.0578 246.0639 15.08826664 66814,6917.921,95.438,541.273,538.299,0.0
53405.0,STARLINK-4510,PAYLOAD,2023-10-22 14:11:13,15.0882538,0.0001868,53.2177,65.6534,108.8226,251.2969,5.2211e-06,-2.05e-06,0.0,0 STARLINK-4510,1 53405U 22097T   23295.59113362 -.00000205  00000-0  52211-5 0  9992,2 53405  53.2177  65.6534 0001868 108.8226 251.2969 15.08825380 67314,6917.925,95.438,541.082,538.498,0.0
53405.0,STARLINK-4510,PAYLOAD,2023-10-22 15:46:37,15.08826211,0.0001569,53.2166,65.3595,95.2287,264.8884,4.1559e-05,3.73e-06,0.0,0 STARLINK-4510,1 53405U 22097T   23295.65737340  .00000373  00000-0  41559-4 0  9994,2 53405  53.2166  65.3595 0001569  95.2287 264.8884 15.08826211 67321,6917.923,95.438,540.873,538.702,0.0
53405.0,STARLINK-4510,PAYLOAD,2023-10-23 01:18:55,15.08834153,0.0001288,53.2176,63.575,96.525,263.5889,5.7692e-05,6.3e-06,0.0,0 STARLINK-4510,1 53405U 22097T   23296.05481033  .00000630  00000-0  57692-4 0  9995,2 53405  53.2176  63.5750 0001288  96.5250 263.5889 15.08834153 66893,6917.898,95.438,540.654,538.872,0.0
53405.0,STARLINK-4510,PAYLOAD,2023-10-23 15:37:23,15.08839045,0.0001254,53.2176,60.8991,99.283,260.8304,0.00015008,2.101e-05,0.0,0 STARLINK-4510,1 53405U 22097T   23296.65096712  .00002101  00000-0  15008-3 0  9996,2 53405  53.2176  60.8991 0001254  99.2830 260.8304 15.08839045 67479,6917.883,95.438,540.616,538.881,0.0
53405.0,STARLINK-4510,PAYLOAD,2023-10-24 01:09:42,15.08844506,0.0001369,53.2181,59.1156,92.7647,267.3502,5.9494e-06,-1.93e-06,0.0,0 STARLINK-4510,1 53405U 22097T   23297.04840684 -.00000193  00000-0  59494-5 0  9994,2 53405  53.2181  59.1156 0001369  92.7647 267.3502 15.08844506 67043,6917.867,95.437,540.679,538.785,0.0
53405.0,STARLINK-4510,PAYLOAD,2023-10-24 12:17:25,15.08826504,0.000132,53.2182,57.0341,96.821,263.2933,0.00020511,2.977e-05,0.0,0 STARLINK-4510,1 53405U 22097T   23297.51209780  .00002977  00000-0  20511-3 0  9999,2 53405  53.2182  57.0341 0001320  96.8210 263.2933 15.08826504 67114,6917.922,95.438,540.7,538.873,0.0
53405.0,STARLINK-4510,PAYLOAD,2023-10-25 13:43:34,15.08847388,0.0001603,53.2215,52.2765,87.1674,272.9502,5.3223e-05,5.59e-06,0.0,0 STARLINK-4510,1 53405U 22097T   23298.57193105  .00000559  00000-0  53223-4 0  9990,2 53405  53.2215  52.2765 0001603  87.1674 272.9502 15.08847388 67278,6917.858,95.437,540.832,538.614,0.0
53405.0,STARLINK-4510,PAYLOAD,2023-10-26 11:58:59,15.08838158,0.0001319,53.2197,48.1151,90.4053,269.709,7.4863e-05,9.04e-06,0.0,0 STARLINK-4510,1 53405U 22097T   23299.49929518  .00000904  00000-0  74863-4 0  9994,2 53405  53.2197  48.1151 0001319  90.4053 269.7090 15.08838158 67419,6917.886,95.438,540.663,538.839,0.0
